ORBCOMM FM37 [-]        
1 33064U 08031E   23308.61626022  .00003160  00000+0  49079-3 0  9990
2 33064  48.4408 260.8850 0006022   5.7387 164.5879 14.75347030827040
ORBCOMM FM40 [-]        
1 33065U 08031F   23308.28891743  .00003924  00000+0  58721-3 0  9990
2 33065  48.4427 253.4528 0007332  13.3816 140.6194 14.76432629826694
VESSELSAT 1 [-]         
1 37840U 11058C   23308.68746282  .00000468  00000+0  11120-3 0  9991
2 37840  19.9623  66.1680 0013669 172.1473 187.9146 14.11078907623028
ORBCOMM FM109 [+]       
1 40086U 14040A   23308.66021269  .00001647  00000+0  40792-3 0  9997
2 40086  47.0042 280.4114 0001022 125.8426 234.2554 14.56051236495062
ORBCOMM FM107 [+]       
1 40087U 14040B   23308.35131404  .00001726  00000+0  42565-3 0  9995
2 40087  47.0060 282.8013 0000863  39.8095 320.2852 14.56055442494974
ORBCOMM FM106 [-]       
1 40088U 14040C   23308.29957736  .00001660  00000+0  33099-3 0  9992
2 40088  47.0600 149.8897 0018551 208.5824 151.4050 14.66183498496672
ORBCOMM FM111 [-]       
1 40089U 14040D   23308.47846191  .00004148  00000+0  55990-3 0  9993
2 40089  47.0047  71.7820 0034412 256.3169 103.3893 14.80288297502548
ORBCOMM FM104 [-]       
1 40090U 14040E   23308.40853534  .00001258  00000+0  33028-3 0  9994
2 40090  47.0063 309.3866 0016963  25.5626 334.6094 14.54597353494553
